STARLINK-3545           
1 51855U 22022D   26176.60337830  .00122972  00000+0  71796-2 0  9998
2 51855  53.1595 254.4153 0001443 124.7193 235.3935 15.10966331239264
STARLINK-3568           
1 51856U 22022E   26176.88075625  .00220489  00000+0  12694-1 0  9993
2 51856  53.1593 253.2575 0001837 133.4833 226.6313 15.10937574239386
STARLINK-3657           
1 51990U 22025AL  26176.58480325  .00000102  00000+0  24467-4 0  9991
2 51990  53.1593 254.6118 0000888  81.1376 278.9716 15.08829542237623
STARLINK-3589           
1 51997U 22025AT  26176.63787691  .00371889  00000+0  19754-1 0  9993
2 51997  53.1583 254.3108 0010036 307.6206  52.3876 15.13030515237204
STARLINK-3659           
1 52001U 22025AX  26176.60047973 -.00000350  00000+0 -39312-5 0  9999
2 52001  53.1593 254.5527 0001046  88.6064 271.5047 15.08833790237214
STARLINK-3668           
1 52002U 22025AY  26176.59953999  .00000363  00000+0  40899-4 0  9995
2 52002  53.1589 254.5847 0000934  98.6910 261.4187 15.08832175237210
