{
  "schema": "int-telemetry-real-tle-snapshot/v1",
  "source": "celestrak",
  "group": "STARLINK",
  "format": "celestrak-gp-json",
  "source_url": "https://celestrak.org/NORAD/elements/gp.php?NAME=STARLINK&FORMAT=JSON",
  "downloaded_at": "2026-07-01T09:45:20.184Z",
  "generated_at": "2026-07-01T09:45:20.328Z",
  "fingerprint": "b8e2cd48",
  "shell_id": "starlink-real-53.2deg-545km",
  "catalog_count": 10658,
  "shell_count": 1056,
  "selected_count": 64,
  "mean_altitude_km": 544.89,
  "mean_inclination_deg": 53.1617,
  "mean_mean_motion_rev_per_day": 15.09493346,
  "layout": {
    "planes": 8,
    "satellites_per_plane": 8,
    "selection_strategy": "target-shell-raan-clusters-even-slot-sampling",
    "raan_cluster_threshold_deg": 1.5,
    "target_inclination_deg": 53,
    "target_altitude_km": 550,
    "selected_shell_key": "53.0deg-550km",
    "target_shell_distance": 21.03
  },
  "satellites": [
    {
      "satellite_id": "P07-S01",
      "norad_id": 51997,
      "satellite_name": "STARLINK-3589",
      "cospar_id": "2022-025AT",
      "shell_id": "starlink-real-53.2deg-545km",
      "plane_id": 6,
      "slot_id": 0,
      "epoch": "2026-06-25T15:18:32.565024",
      "inclination": 53.1583,
      "raan": 254.31079999999997,
      "eccentricity": 0.0010036,
      "argument_of_perigee": 307.62059999999997,
      "mean_anomaly": 52.38760000000002,
      "mean_motion": 15.13030515,
      "bstar": 0.019754,
      "status": "active",
      "raw_omm": {
        "OBJECT_NAME": "STARLINK-3589",
        "OBJECT_ID": "2022-025AT",
        "EPOCH": "2026-06-25T15:18:32.565024",
        "MEAN_MOTION": 15.13030515,
        "ECCENTRICITY": 0.0010036,
        "INCLINATION": 53.1583,
        "RA_OF_ASC_NODE": 254.3108,
        "ARG_OF_PERICENTER": 307.6206,
        "MEAN_ANOMALY": 52.3876,
        "EPHEMERIS_TYPE": 0,
        "CLASSIFICATION_TYPE": "U",
        "NORAD_CAT_ID": 51997,
        "ELEMENT_SET_NO": 999,
        "REV_AT_EPOCH": 23720,
        "BSTAR": 0.019754,
        "MEAN_MOTION_DOT": 0.00371889,
        "MEAN_MOTION_DDOT": 0
      },
      "source": "celestrak",
      "source_url": "https://celestrak.org/NORAD/elements/gp.php?NAME=STARLINK&FORMAT=JSON",
      "catalog_fingerprint": "b8e2cd48"
    },
    {
      "satellite_id": "P07-S02",
      "norad_id": 51990,
      "satellite_name": "STARLINK-3657",
      "cospar_id": "2022-025AL",
      "shell_id": "starlink-real-53.2deg-545km",
      "plane_id": 6,
      "slot_id": 1,
      "epoch": "2026-06-25T14:02:07.000800",
      "inclination": 53.1593,
      "raan": 254.61180000000002,
      "eccentricity": 0.0000888,
      "argument_of_perigee": 81.13760000000002,
      "mean_anomaly": 278.9716000000001,
      "mean_motion": 15.08829542,
      "bstar": 0.000024467,
      "status": "active",
      "raw_omm": {
        "OBJECT_NAME": "STARLINK-3657",
        "OBJECT_ID": "2022-025AL",
        "EPOCH": "2026-06-25T14:02:07.000800",
        "MEAN_MOTION": 15.08829542,
        "ECCENTRICITY": 0.0000888,
        "INCLINATION": 53.1593,
        "RA_OF_ASC_NODE": 254.6118,
        "ARG_OF_PERICENTER": 81.1376,
        "MEAN_ANOMALY": 278.9716,
        "EPHEMERIS_TYPE": 0,
        "CLASSIFICATION_TYPE": "U",
        "NORAD_CAT_ID": 51990,
        "ELEMENT_SET_NO": 999,
        "REV_AT_EPOCH": 23762,
        "BSTAR": 0.000024467,
        "MEAN_MOTION_DOT": 0.00000102,
        "MEAN_MOTION_DDOT": 0
      },
      "source": "celestrak",
      "source_url": "https://celestrak.org/NORAD/elements/gp.php?NAME=STARLINK&FORMAT=JSON",
      "catalog_fingerprint": "b8e2cd48"
    },
    {
      "satellite_id": "P07-S03",
      "norad_id": 52002,
      "satellite_name": "STARLINK-3668",
      "cospar_id": "2022-025AY",
      "shell_id": "starlink-real-53.2deg-545km",
      "plane_id": 6,
      "slot_id": 2,
      "epoch": "2026-06-25T14:23:20.255136",
      "inclination": 53.1589,
      "raan": 254.5847,
      "eccentricity": 0.0000934,
      "argument_of_perigee": 98.69100000000003,
      "mean_anomaly": 261.41869999999994,
      "mean_motion": 15.08832175,
      "bstar": 0.000040899,
      "status": "active",
      "raw_omm": {
        "OBJECT_NAME": "STARLINK-3668",
        "OBJECT_ID": "2022-025AY",
        "EPOCH": "2026-06-25T14:23:20.255136",
        "MEAN_MOTION": 15.08832175,
        "ECCENTRICITY": 0.0000934,
        "INCLINATION": 53.1589,
        "RA_OF_ASC_NODE": 254.5847,
        "ARG_OF_PERICENTER": 98.691,
        "MEAN_ANOMALY": 261.4187,
        "EPHEMERIS_TYPE": 0,
        "CLASSIFICATION_TYPE": "U",
        "NORAD_CAT_ID": 52002,
        "ELEMENT_SET_NO": 999,
        "REV_AT_EPOCH": 23721,
        "BSTAR": 0.000040899,
        "MEAN_MOTION_DOT": 0.00000363,
        "MEAN_MOTION_DDOT": 0
      },
      "source": "celestrak",
      "source_url": "https://celestrak.org/NORAD/elements/gp.php?NAME=STARLINK&FORMAT=JSON",
      "catalog_fingerprint": "b8e2cd48"
    },
    {
      "satellite_id": "P07-S04",
      "norad_id": 52001,
      "satellite_name": "STARLINK-3659",
      "cospar_id": "2022-025AX",
      "shell_id": "starlink-real-53.2deg-545km",
      "plane_id": 6,
      "slot_id": 3,
      "epoch": "2026-06-25T14:24:41.448672",
      "inclination": 53.1593,
      "raan": 254.55269999999996,
      "eccentricity": 0.0001046,
      "argument_of_perigee": 88.60640000000001,
      "mean_anomaly": 271.50469999999996,
      "mean_motion": 15.0883379,
      "bstar": -0.0000039312,
      "status": "active",
      "raw_omm": {
        "OBJECT_NAME": "STARLINK-3659",
        "OBJECT_ID": "2022-025AX",
        "EPOCH": "2026-06-25T14:24:41.448672",
        "MEAN_MOTION": 15.0883379,
        "ECCENTRICITY": 0.0001046,
        "INCLINATION": 53.1593,
        "RA_OF_ASC_NODE": 254.5527,
        "ARG_OF_PERICENTER": 88.6064,
        "MEAN_ANOMALY": 271.5047,
        "EPHEMERIS_TYPE": 0,
        "CLASSIFICATION_TYPE": "U",
        "NORAD_CAT_ID": 52001,
        "ELEMENT_SET_NO": 999,
        "REV_AT_EPOCH": 23721,
        "BSTAR": -0.0000039312,
        "MEAN_MOTION_DOT": -0.0000035,
        "MEAN_MOTION_DDOT": 0
      },
      "source": "celestrak",
      "source_url": "https://celestrak.org/NORAD/elements/gp.php?NAME=STARLINK&FORMAT=JSON",
      "catalog_fingerprint": "b8e2cd48"
    },
    {
      "satellite_id": "P07-S05",
      "norad_id": 51855,
      "satellite_name": "STARLINK-3545",
      "cospar_id": "2022-022D",
      "shell_id": "starlink-real-53.2deg-545km",
      "plane_id": 6,
      "slot_id": 4,
      "epoch": "2026-06-25T14:28:51.885120",
      "inclination": 53.1595,
      "raan": 254.4153,
      "eccentricity": 0.0001443,
      "argument_of_perigee": 124.71929999999998,
      "mean_anomaly": 235.39350000000002,
      "mean_motion": 15.10966331,
      "bstar": 0.0071796,
      "status": "active",
      "raw_omm": {
        "OBJECT_NAME": "STARLINK-3545",
        "OBJECT_ID": "2022-022D",
        "EPOCH": "2026-06-25T14:28:51.885120",
        "MEAN_MOTION": 15.10966331,
        "ECCENTRICITY": 0.0001443,
        "INCLINATION": 53.1595,
        "RA_OF_ASC_NODE": 254.4153,
        "ARG_OF_PERICENTER": 124.7193,
        "MEAN_ANOMALY": 235.3935,
        "EPHEMERIS_TYPE": 0,
        "CLASSIFICATION_TYPE": "U",
        "NORAD_CAT_ID": 51855,
        "ELEMENT_SET_NO": 999,
        "REV_AT_EPOCH": 23926,
        "BSTAR": 0.0071796,
        "MEAN_MOTION_DOT": 0.00122972,
        "MEAN_MOTION_DDOT": 0
      },
      "source": "celestrak",
      "source_url": "https://celestrak.org/NORAD/elements/gp.php?NAME=STARLINK&FORMAT=JSON",
      "catalog_fingerprint": "b8e2cd48"
    },
    {
      "satellite_id": "P07-S06",
      "norad_id": 51856,
      "satellite_name": "STARLINK-3568",
      "cospar_id": "2022-022E",
      "shell_id": "starlink-real-53.2deg-545km",
      "plane_id": 6,
      "slot_id": 5,
      "epoch": "2026-06-25T21:08:17.340000",
      "inclination": 53.1593,
      "raan": 253.25749999999994,
      "eccentricity": 0.0001837,
      "argument_of_perigee": 133.48329999999999,
      "mean_anomaly": 226.6313,
      "mean_motion": 15.10937574,
      "bstar": 0.012694,
      "status": "active",
      "raw_omm": {
        "OBJECT_NAME": "STARLINK-3568",
        "OBJECT_ID": "2022-022E",
        "EPOCH": "2026-06-25T21:08:17.340000",
        "MEAN_MOTION": 15.10937574,
        "ECCENTRICITY": 0.0001837,
        "INCLINATION": 53.1593,
        "RA_OF_ASC_NODE": 253.2575,
        "ARG_OF_PERICENTER": 133.4833,
        "MEAN_ANOMALY": 226.6313,
        "EPHEMERIS_TYPE": 0,
        "CLASSIFICATION_TYPE": "U",
        "NORAD_CAT_ID": 51856,
        "ELEMENT_SET_NO": 999,
        "REV_AT_EPOCH": 23938,
        "BSTAR": 0.012694,
        "MEAN_MOTION_DOT": 0.00220489,
        "MEAN_MOTION_DDOT": 0
      },
      "source": "celestrak",
      "source_url": "https://celestrak.org/NORAD/elements/gp.php?NAME=STARLINK&FORMAT=JSON",
      "catalog_fingerprint": "b8e2cd48"
    }
  ]
}